CUTE-1 (CO-55)          
1 27844U 03031E   26157.49994927  .00000321  00000+0  15775-3 0  9999
2 27844  98.6735 166.1932 0008851 210.1158 149.9513 14.24329258190151
CUBESAT XI-IV (CO-57)   
1 27848U 03031J   26157.55333329  .00000268  00000+0  13659-3 0  9992
2 27848  98.6767 165.9671 0008459 230.3427 129.7005 14.23615194189868
CUBESAT XI-V            
1 28895U 05043F   26157.66697904  .00001638  00000+0  26546-3 0  9995
2 28895  98.2975 313.0688 0013037 235.8954 124.1016 14.72603733100207
CUTE-1.7+APD II (CO-65) 
1 32785U 08021C   26158.23858507  .00006197  00000+0  39187-3 0  9999
2 32785  97.8270 139.4511 0010393  67.8942 292.3389 15.09355323983693
CANX-2                  
1 32790U 08021H   26157.85385289  .00003894  00000+0  27460-3 0  9996
2 32790  97.8634 137.4322 0012220  81.4621 278.7990 15.05542182983253
SEEDS II (CO-66)        
1 32791U 08021J   26157.55833225  .00023420  00000+0  75009-3 0  9991
2 32791  97.7518 154.9517 0002601  35.3933 324.7480 15.32385592985663
SWISSCUBE               
1 35932U 09051B   26158.24807612  .00001230  00000+0  25261-3 0  9993
2 35932  98.4042  65.9631 0005474 239.3453 120.7208 14.62463612887705
BEESAT-1                
1 35933U 09051C   26158.45771108  .00000992  00000+0  20891-3 0  9995
2 35933  98.3972  65.8321 0003902 255.7075 104.3692 14.61705451887768
ITUPSAT1                
1 35935U 09051E   26157.68643730  .00000831  00000+0  18172-3 0  9991
2 35935  98.4055  64.2519 0006097 273.4297  86.6205 14.60425026887203
TISAT 1                 
1 36799U 10035E   26158.12068653  .00022744  00000+0  75310-3 0  9993
2 36799  98.0705 103.7796 0000069  57.6327 302.4919 15.31327055866160
AEROCUBE 4.5A           
1 38767U 12048K   26157.10560387  .00391799  62769-4  14146-2 0  9997
2 38767  64.6266  67.2252 0019485 215.0043 144.9836 15.88053967370893
STRAND-1                
1 39090U 13009E   26158.23931919  .00000328  00000+0  12474-3 0  9996
2 39090  98.3920 338.7188 0007407 259.4437 100.5915 14.37157528695637
BRITE-AUSTRIA           
1 39091U 13009F   26158.24790477  .00000204  00000+0  84090-4 0  9997
2 39091  98.3993 337.9300 0008957 270.0657  89.9503 14.36538233695626
NEE-01 PEGASO           
1 39151U 13018B   26158.14984891  .00003603  00000+0  34660-3 0  9991
2 39151  98.1215 301.9695 0012393 190.8803 169.2150 14.93612333709204
POPACS 2                
1 39269U 13055E   26157.70761038  .00014344  00000+0  24487-3 0  9999
2 39269  80.9909 156.1865 0417203 227.4609 129.0682 14.90961161661655
POPACS 3                
1 39270U 13055F   26158.22388801  .00011557  00000+0  27206-3 0  9997
2 39270  81.0011 239.9862 0553011 100.3054 266.0944 14.55931826637103
ZACUBE-1 (TSHEPISOSAT)  
1 39417U 13066B   26158.14216119  .00004465  00000+0  34772-3 0  9991
2 39417  97.8099 120.4248 0039960 283.1130  76.5636 15.01125110679220
WNISAT-1                
1 39423U 13066H   26158.19167082  .00000846  00000+0  16303-3 0  9996
2 39423  97.7192 308.0580 0161676 263.3312  94.9466 14.58047571665275
TRITON-1                
1 39427U 13066M   26158.50348105  .00002635  00000+0  31985-3 0  9993
2 39427  97.8248  68.5307 0088324 265.9452  93.1661 14.81672122672658
GOMX-1                  
1 39430U 13066Q   26158.51656233  .00002574  00000+0  38929-3 0  9999
2 39430  97.6491 359.5890 0130098 108.2777 253.2636 14.69424459668497
CUBEBUG-2 (LO-74)       
1 39440U 13066AA  26156.80918561  .00005560  00000+0  51354-3 0  9990
2 39440  97.8908 105.7402 0059434  65.9901 294.7524 14.93668030675299
NEE-02 KRYSAOR          
1 39441U 13066AB  26158.11286272  .00002630  00000+0  29089-3 0  9999
2 39441  97.8888  97.4002 0067683 102.4485 258.4315 14.86575916674701
FUNCUBE-1 (AO-73)       
1 39444U 13066AE  26158.17904856  .00007594  00000+0  47302-3 0  9995
2 39444  97.8278 129.4171 0034673 235.9808 123.8126 15.09372001678158
UWE-3                   
1 39446U 13066AG  26157.65461373  .00005074  00000+0  43622-3 0  9993
2 39446  97.8693 113.6587 0049030 356.7161   3.3731 14.96941234676005
BRITE-CA1 (TORONTO)     
1 40020U 14033L   26158.25375437  .00000857  00000+0  13644-3 0  9995
2 40020  97.9728 287.3655 0077513 309.3628  50.0729 14.72663724640757
DUCHIFAT-1              
1 40021U 14033M   26158.42229156  .00098660  00000+0  10915-2 0  9997
2 40021  98.0450 216.2271 0004554 133.9482 226.2150 15.62679901654227
NANOSATC-BR1            
1 40024U 14033Q   26158.33828382  .00017326  00000+0  57801-3 0  9992
2 40024  98.0731 189.8557 0003366 191.4647 168.6516 15.31142687652478
QB50P1                  
1 40025U 14033R   26158.26366557  .00008812  00000+0  43536-3 0  9996
2 40025  98.0971 168.7150 0007082 255.6784 104.3662 15.18108574651520
QB50P2                  
1 40032U 14033Y   26158.25957892  .00007939  00000+0  42838-3 0  9994
2 40032  98.0757 154.5231 0006955 196.1630 163.9380 15.15032533651166
PERSEUS-M2              
1 40037U 14033AD  26158.49521096  .00002208  00000+0  20475-3 0  9995
2 40037  97.9976 108.8391 0011406 341.0129  19.0664 14.95488056649336
